{
  "links" : {
    "next" : "https://api.nasa.gov/neo/rest/v1/feed?start_date=2009-11-16&end_date=2009-11-16&detailed=true&api_key=t0TVs3DtDT2H8Oy2Zy8m2eVrNsAVKAexjcZXUckd",
    "prev" : "https://api.nasa.gov/neo/rest/v1/feed?start_date=2009-11-14&end_date=2009-11-14&detailed=true&api_key=t0TVs3DtDT2H8Oy2Zy8m2eVrNsAVKAexjcZXUckd",
    "self" : "https://api.nasa.gov/neo/rest/v1/feed?start_date=2009-11-15&end_date=2009-11-15&detailed=true&api_key=t0TVs3DtDT2H8Oy2Zy8m2eVrNsAVKAexjcZXUckd"
  },
  "element_count" : 7,
  "near_earth_objects" : {
    "2009-11-15" : [ {
      "links" : {
        "self" : "https://api.nasa.gov/neo/rest/v1/neo/3768653?api_key=t0TVs3DtDT2H8Oy2Zy8m2eVrNsAVKAexjcZXUckd"
      },
      "neo_reference_id" : "3768653",
      "name" : "(2017 CW1)",
      "nasa_jpl_url" : "http://ssd.jpl.nasa.gov/sbdb.cgi?sstr=3768653",
      "absolute_magnitude_h" : 21.2,
      "estimated_diameter" : {
        "kilometers" : {
          "estimated_diameter_min" : 0.1529519353,
          "estimated_diameter_max" : 0.3420109247
        },
        "meters" : {
          "estimated_diameter_min" : 152.9519353442,
          "estimated_diameter_max" : 342.0109247198
        },
        "miles" : {
          "estimated_diameter_min" : 0.095039897,
          "estimated_diameter_max" : 0.2125156703
        },
        "feet" : {
          "estimated_diameter_min" : 501.8108275547,
          "estimated_diameter_max" : 1122.0831222578
        }
      },
      "is_potentially_hazardous_asteroid" : false,
      "close_approach_data" : [ {
        "close_approach_date" : "2009-11-15",
        "epoch_date_close_approach" : 1258272000000,
        "relative_velocity" : {
          "kilometers_per_second" : "10.5499036159",
          "kilometers_per_hour" : "37979.6530173275",
          "miles_per_hour" : "23599.0793984611"
        },
        "miss_distance" : {
          "astronomical" : "0.4382286027",
          "lunar" : "170.4709320068",
          "kilometers" : "65558068",
          "miles" : "40735896"
        },
        "orbiting_body" : "Earth"
      } ],
      "orbital_data" : {
        "orbit_id" : "8",
        "orbit_determination_date" : "2017-04-06 08:20:15",
        "orbit_uncertainty" : "6",
        "minimum_orbit_intersection" : ".175149",
        "jupiter_tisserand_invariant" : "5.612",
        "epoch_osculation" : "2458000.5",
        "eccentricity" : ".333475824302213",
        "semi_major_axis" : "1.092558135496486",
        "inclination" : "10.48001910777009",
        "ascending_node_longitude" : "244.4110741219218",
        "orbital_period" : "417.1240780423452",
        "perihelion_distance" : ".7282164106637067",
        "perihelion_argument" : "10.97770524099359",
        "aphelion_distance" : "1.456899860329266",
        "perihelion_time" : "2457902.041086270790",
        "mean_anomaly" : "84.97521674813798",
        "mean_motion" : ".8630525518679214",
        "equinox" : "J2000"
      }
    } ]
  }
}